{
  "type": "FeatureCollection",
  "features": [
    {
      "type": "Feature",
      "properties": {
        "norad_id": 66808,
        "name": "STARLINK-36071",
        "group": "last-30-days",
        "lat": -42.93127600614983,
        "lon": 68.89094109555961,
        "alt_km": 416.2304383581795,
        "timestamp": "2025-12-27T18:38:02.204160+00:00",
        "meta_object_name": "STARLINK-36071",
        "meta_object_id": "2025-278T",
        "meta_epoch": "2025-12-27T11:18:06.451200",
        "meta_mean_motion": 15.50641753,
        "meta_eccentricity": 0.0002646,
        "meta_inclination": 42.9997,
        "meta_ra_of_asc_node": 163.9979,
        "meta_arg_of_pericenter": 273.6851,
        "meta_mean_anomaly": 86.3706,
        "meta_ephemeris_type": 0,
        "meta_classification_type": "U",
        "meta_norad_cat_id": 66808,
        "meta_element_set_no": 999,
        "meta_rev_at_epoch": 414,
        "meta_bstar": 0.0019906,
        "meta_mean_motion_dot": 0.00118491,
        "meta_mean_motion_ddot": 0,
        "tle_line1": "1 66808U 25278T   25361.47090800  .00118491  00000+0  19906-2 0  9997",
        "tle_line2": "2 66808  42.9997 163.9979 0002646 273.6851  86.3706 15.50641753  4140"
      },
      "geometry": {
        "type": "Point",
        "coordinates": [
          68.89094109555961,
          -42.93127600614983
        ]
      }
    },
    {
      "type": "Feature",
      "properties": {
        "norad_id": 66809,
        "name": "STARLINK-35979",
        "group": "last-30-days",
        "lat": -42.89954878590895,
        "lon": 76.48127372461629,
        "alt_km": 417.449547025587,
        "timestamp": "2025-12-27T18:38:02.204170+00:00",
        "meta_object_name": "STARLINK-35979",
        "meta_object_id": "2025-278U",
        "meta_epoch": "2025-12-27T00:00:02.999808",
        "meta_mean_motion": 15.5058641,
        "meta_eccentricity": 0.00016801,
        "meta_inclination": 43,
        "meta_ra_of_asc_node": 166.7377,
        "meta_arg_of_pericenter": 271.8791,
        "meta_mean_anomaly": 342.3387,
        "meta_ephemeris_type": 0,
        "meta_classification_type": "U",
        "meta_norad_cat_id": 66809,
        "meta_element_set_no": 999,
        "meta_rev_at_epoch": 525,
        "meta_bstar": -0.0008244962,
        "meta_mean_motion_dot": -0.00048426,
        "meta_mean_motion_ddot": 0,
        "tle_line1": "1 66809U 25278U   25361.00003472 -.00048426  00000+0 -82450-3 0  9993",
        "tle_line2": "2 66809  43.0000 166.7377 0001680 271.8791 342.3387 15.50586410  5252"
      },
      "geometry": {
        "type": "Point",
        "coordinates": [
          76.48127372461629,
          -42.89954878590895
        ]
      }
    },
    {
      "type": "Feature",
      "properties": {
        "norad_id": 66810,
        "name": "STARLINK-36046",
        "group": "last-30-days",
        "lat": -42.975999139868186,
        "lon": 71.30215647729128,
        "alt_km": 417.4588056249286,
        "timestamp": "2025-12-27T18:38:02.204182+00:00",
        "meta_object_name": "STARLINK-36046",
        "meta_object_id": "2025-278V",
        "meta_epoch": "2025-12-27T00:00:02.999808",
        "meta_mean_motion": 15.50568345,
        "meta_eccentricity": 0.00015311,
        "meta_inclination": 43,
        "meta_ra_of_asc_node": 166.7484,
        "meta_arg_of_pericenter": 272.8452,
        "meta_mean_anomaly": 337.5404,
        "meta_ephemeris_type": 0,
        "meta_classification_type": "U",
        "meta_norad_cat_id": 66810,
        "meta_element_set_no": 999,
        "meta_rev_at_epoch": 502,
        "meta_bstar": -0.00020906802,
        "meta_mean_motion_dot": -0.00012582,
        "meta_mean_motion_ddot": 0,
        "tle_line1": "1 66810U 25278V   25361.00003472 -.00012582  00000+0 -20907-3 0  9998",
        "tle_line2": "2 66810  43.0000 166.7484 0001531 272.8452 337.5404 15.50568345  5021"
      },
      "geometry": {
        "type": "Point",
        "coordinates": [
          71.30215647729128,
          -42.975999139868186
        ]
      }
    },
    {
      "type": "Feature",
      "properties": {
        "norad_id": 66811,
        "name": "STARLINK-36045",
        "group": "last-30-days",
        "lat": -42.96706520965787,
        "lon": 73.89527249985561,
        "alt_km": 417.52470033519603,
        "timestamp": "2025-12-27T18:38:02.204193+00:00",
        "meta_object_name": "STARLINK-36045",
        "meta_object_id": "2025-278W",
        "meta_epoch": "2025-12-27T00:00:02.999808",
        "meta_mean_motion": 15.50574589,
        "meta_eccentricity": 0.00015029,
        "meta_inclination": 43,
        "meta_ra_of_asc_node": 166.7434,
        "meta_arg_of_pericenter": 276.2762,
        "meta_mean_anomaly": 336.0265,
        "meta_ephemeris_type": 0,
        "meta_classification_type": "U",
        "meta_norad_cat_id": 66811,
        "meta_element_set_no": 999,
        "meta_rev_at_epoch": 525,
        "meta_bstar": -0.00044570011,
        "meta_mean_motion_dot": -0.00026396,
        "meta_mean_motion_ddot": 0,
        "tle_line1": "1 66811U 25278W   25361.00003472 -.00026396  00000+0 -44570-3 0  9999",
        "tle_line2": "2 66811  43.0000 166.7434 0001502 276.2762 336.0265 15.50574589  5258"
      },
      "geometry": {
        "type": "Point",
        "coordinates": [
          73.89527249985561,
          -42.96706520965787
        ]
      }
    },
    {
      "type": "Feature",
      "properties": {
        "norad_id": 66812,
        "name": "STARLINK-36054",
        "group": "last-30-days",
        "lat": -42.77387545895576,
        "lon": 79.06119345263923,
        "alt_km": 417.60307597971496,
        "timestamp": "2025-12-27T18:38:02.204205+00:00",
        "meta_object_name": "STARLINK-36054",
        "meta_object_id": "2025-278X",
        "meta_epoch": "2025-12-27T00:00:02.999808",
        "meta_mean_motion": 15.50590752,
        "meta_eccentricity": 0.00015537,
        "meta_inclination": 43.0001,
        "meta_ra_of_asc_node": 166.7346,
        "meta_arg_of_pericenter": 283.3881,
        "meta_mean_anomaly": 332.7504,
        "meta_ephemeris_type": 0,
        "meta_classification_type": "U",
        "meta_norad_cat_id": 66812,
        "meta_element_set_no": 999,
        "meta_rev_at_epoch": 525,
        "meta_bstar": -0.0010498251,
        "meta_mean_motion_dot": -0.00061474,
        "meta_mean_motion_ddot": 0,
        "tle_line1": "1 66812U 25278X   25361.00003472 -.00061474  00000+0 -10498-2 0  9997",
        "tle_line2": "2 66812  43.0001 166.7346 0001553 283.3881 332.7504 15.50590752  5258"
      },
      "geometry": {
        "type": "Point",
        "coordinates": [
          79.06119345263923,
          -42.77387545895576
        ]
      }
    },
    {
      "type": "Feature",
      "properties": {
        "norad_id": 66813,
        "name": "STARLINK-36042",
        "group": "last-30-days",
        "lat": -42.58662576565645,
        "lon": 81.6700598725426,
        "alt_km": 417.58061710699894,
        "timestamp": "2025-12-27T18:38:02.204215+00:00",
        "meta_object_name": "STARLINK-36042",
        "meta_object_id": "2025-278Y",
        "meta_epoch": "2025-12-27T00:00:02.999808",
        "meta_mean_motion": 15.50582259,
        "meta_eccentricity": 0.00014738,
        "meta_inclination": 43.0001,
        "meta_ra_of_asc_node": 166.7288,
        "meta_arg_of_pericenter": 268.2974,
        "meta_mean_anomaly": 349.7609,
        "meta_ephemeris_type": 0,
        "meta_classification_type": "U",
        "meta_norad_cat_id": 66813,
        "meta_element_set_no": 999,
        "meta_rev_at_epoch": 525,
        "meta_bstar": -0.00079082002,
        "meta_mean_motion_dot": -0.00046466,
        "meta_mean_motion_ddot": 0,
        "tle_line1": "1 66813U 25278Y   25361.00003472 -.00046466  00000+0 -79082-3 0  9997",
        "tle_line2": "2 66813  43.0001 166.7288 0001473 268.2974 349.7609 15.50582259  5257"
      },
      "geometry": {
        "type": "Point",
        "coordinates": [
          81.6700598725426,
          -42.58662576565645
        ]
      }
    },
    {
      "type": "Feature",
      "properties": {
        "norad_id": 66814,
        "name": "STARLINK-35984",
        "group": "last-30-days",
        "lat": -42.953004495812436,
        "lon": 69.75647813746785,
        "alt_km": 438.2175951905765,
        "timestamp": "2025-12-27T18:38:02.204225+00:00",
        "meta_object_name": "STARLINK-35984",
        "meta_object_id": "2025-278Z",
        "meta_epoch": "2025-12-27T12:00:02.000160",
        "meta_mean_motion": 15.44702382,
        "meta_eccentricity": 0.0001228,
        "meta_inclination": 42.9995,
        "meta_ra_of_asc_node": 163.8098,
        "meta_arg_of_pericenter": 277.5179,
        "meta_mean_anomaly": 252.4892,
        "meta_ephemeris_type": 0,
        "meta_classification_type": "U",
        "meta_norad_cat_id": 66814,
        "meta_element_set_no": 999,
        "meta_rev_at_epoch": 542,
        "meta_bstar": -0.048427,
        "meta_mean_motion_dot": -0.02056682,
        "meta_mean_motion_ddot": 0,
        "tle_line1": "1 66814U 25278Z   25361.50002315 -.02056682  00000+0 -48427-1 0  9998",
        "tle_line2": "2 66814  42.9995 163.8098 0001228 277.5179 252.4892 15.44702382  5420"
      },
      "geometry": {
        "type": "Point",
        "coordinates": [
          69.75647813746785,
          -42.953004495812436
        ]
      }
    }
  ]
}